     2.100          NAVIGATION                              RINEX VERSION / TYPE
fic2rin                                 11/03/2013 00:23:31 PGM / RUN BY / DATE
                                                            END OF HEADER
 7 13 11  2  8  0  0.0  .276202335954D-03  .420641299570D-11  .000000000000D+00
     .930000000000D+02 -.111187500000D+03  .436911056242D-08 -.275377714647D+01
    -.577606260777D-05  .700628687628D-02  .550784170628D-05  .515366691780D+04
     .547200000000D+06 -.130385160446D-06 -.106193560577D+01 -.121071934700D-06
     .974529057870D+00  .283875000000D+03 -.284938382564D+01 -.809462288782D-08
    -.355371945525D-09  .100000000000D+01  .176400000000D+04  .000000000000D+00
     .240000000000D+01  .000000000000D+00 -.107102096081D-07  .930000000000D+02
     .540006000000D+06  .400000000000D+01
 8 13 11  2  8  0  0.0  .960100442171D-05  .341060513165D-12  .000000000000D+00
     .450000000000D+02 -.121281250000D+03  .374944189359D-08  .295896275348D+01
    -.629387795925D-05  .134978094138D-01  .688619911671D-05  .515368050194D+04
     .547200000000D+06 -.180676579475D-06 -.967111985673D+00 -.856816768646D-07
     .997554041090D+00  .269250000000D+03 -.281314977473D+01 -.761996025907D-08
    -.384301721995D-09  .100000000000D+01  .176400000000D+04  .000000000000D+00
     .240000000000D+01  .000000000000D+00 -.465661287308D-08  .450000000000D+02
     .540006000000D+06  .400000000000D+01
 9 13 11  2  8  0  0.0  .280036125332D-03  .284217094304D-11  .000000000000D+00
     .430000000000D+02 -.105468750000D+03  .430625080120D-08 -.157656392667D+01
    -.505335628986D-05  .168319044169D-01  .576861202717D-05  .515370983505D+04
     .547200000000D+06 -.169500708580D-06 -.108396764358D+01  .409781932831D-06
     .983097271045D+00  .282781250000D+03  .173922785647D+01 -.811033782812D-08
    -.360014996070D-09  .100000000000D+01  .176400000000D+04  .000000000000D+00
     .340000000000D+01  .000000000000D+00 -.605359673500D-08  .430000000000D+02
     .540006000000D+06  .400000000000D+01
10 13 11  2  8  0  0.0 -.100098550320D-03 -.136424205266D-11  .000000000000D+00
     .200000000000D+02  .782187500000D+02  .459376277723D-08  .116109744652D+01
     .416114926338D-05  .130594142247D-01  .123493373394D-04  .515368208694D+04
     .547200000000D+06 -.163912773132D-06  .311995349413D+01  .763684511185D-07
     .943344055118D+00  .134625000000D+03  .827272171664D+00 -.819569852660D-08
    -.127862468842D-09  .100000000000D+01  .176400000000D+04  .000000000000D+00
     .240000000000D+01  .000000000000D+00 -.279396772385D-08  .200000000000D+02
     .540006000000D+06  .400000000000D+01
11 13 11  2  8  0  0.0 -.434206333011D-03 -.341060513165D-11  .000000000000D+00
     .560000000000D+02 -.510937500000D+02  .648384150660D-08 -.251447085803D+01
    -.260397791862D-05  .147486226633D-01  .360049307346D-05  .515368619919D+04
     .547200000000D+06  .188127160072D-06  .175171952524D+01 -.372529029846D-07
     .889098521699D+00  .268843750000D+03  .123447964101D+01 -.892322883115D-08
    -.276797244002D-09  .100000000000D+01  .176400000000D+04  .000000000000D+00
     .240000000000D+01  .000000000000D+00 -.116415321827D-07  .560000000000D+02
     .540006000000D+06  .400000000000D+01
12 13 11  2  8  0  0.0  .165659468621D-03  .227373675443D-11  .000000000000D+00
     .890000000000D+02 -.264687500000D+02  .365693804043D-08 -.305963579884D+01
    -.145100057125D-05  .453087501228D-02  .137668102980D-04  .515374097633D+04
     .547200000000D+06 -.100582838058D-06 -.177088574164D-02 -.167638063431D-07
     .986082470956D+00  .123781250000D+03  .330371913362D+00 -.745245328174D-08
     .295726603914D-09  .100000000000D+01  .176400000000D+04  .000000000000D+00
     .340000000000D+01  .000000000000D+00 -.121071934700D-07  .890000000000D+02
     .540006000000D+06  .400000000000D+01
13 13 11  2  8  0  0.0  .639869831502D-04 -.386535248253D-11  .000000000000D+00
     .110000000000D+02  .639687500000D+02  .442196990708D-08 -.399445736575D+00
     .311434268951D-05  .501933135092D-02  .240653753281D-05  .515368311882D+04
     .547200000000D+06 -.186264514923D-08 -.202842288153D+01 -.745058059692D-08
     .979685914319D+00  .341937500000D+03  .219868048554D+01 -.841177895579D-08
     .336085427879D-09  .100000000000D+01  .176400000000D+04  .000000000000D+00
     .240000000000D+01  .000000000000D+00 -.111758708954D-07  .110000000000D+02
     .540006000000D+06  .400000000000D+01
14 13 11  2  8  0  0.0  .211765524000D-03 -.102318153949D-11  .000000000000D+00
     .330000000000D+02  .756562500000D+02  .471412493365D-08 -.139728578108D+00
     .388361513615D-05  .740608118940D-02  .279583036900D-05  .515357432938D+04
     .547200000000D+06 -.931322574615D-07 -.205882211295D+01  .651925802231D-07
     .972334802173D+00  .334718750000D+03 -.199023034611D+01 -.858178603726D-08
     .361086469272D-09  .100000000000D+01  .176400000000D+04  .000000000000D+00
     .240000000000D+01  .000000000000D+00 -.884756445885D-08  .330000000000D+02
     .540006000000D+06  .400000000000D+01
15 13 11  2  8  0  0.0 -.145040452480D-03 -.193267624127D-11  .000000000000D+00
     .840000000000D+02  .860625000000D+02  .536379485216D-08 -.616601436702D+00
     .452250242233D-05  .577052903827D-02  .230781733990D-05  .515358883095D+04
     .547200000000D+06  .117346644402D-06 -.216403226122D+01 -.614672899246D-07
     .939022159162D+00  .320218750000D+03  .172022057295D+00 -.885501170392D-08
     .380730144653D-09  .100000000000D+01  .176400000000D+04  .000000000000D+00
     .240000000000D+01  .000000000000D+00 -.102445483208D-07  .840000000000D+02
     .540006000000D+06  .400000000000D+01
16 13 11  2  8  0  0.0 -.242938753217D-03  .102318153949D-11  .000000000000D+00
     .980000000000D+02 -.393437500000D+02  .378158608967D-08  .105463146938D+01
    -.176206231117D-05  .710204895586D-02  .124517828226D-04  .515374278831D+04
     .547200000000D+06  .633299350739D-07  .166748991022D-01  .651925802231D-07
     .986733848397D+00  .151500000000D+03  .132061257681D+00 -.757495838456D-08
     .161078138122D-09  .100000000000D+01  .176400000000D+04  .000000000000D+00
     .340000000000D+01  .000000000000D+00 -.977888703346D-08  .980000000000D+02
     .540006000000D+06  .400000000000D+01
17 13 11  2  8  0  0.0 -.368896871805D-04 -.363797880709D-11  .000000000000D+00
     .220000000000D+02  .377500000000D+02  .493484841339D-08  .102461086750D+00
     .203959643841D-05  .866626342759D-02  .502914190292D-05  .515369039345D+04
     .547200000000D+06 -.149011611938D-07  .105099796416D+01  .121071934700D-06
     .966470907175D+00  .287312500000D+03 -.218631288978D+01 -.845356641069D-08
     .262868092368D-09  .100000000000D+01  .176400000000D+04  .000000000000D+00
     .240000000000D+01  .000000000000D+00 -.107102096081D-07  .220000000000D+02
     .540006000000D+06  .400000000000D+01
18 13 11  2  8  0  0.0  .282678287476D-03  .204636307899D-11  .000000000000D+00
     .109000000000D+03  .741250000000D+02  .492591947003D-08  .163028243508D+01
     .382028520107D-05  .145660680719D-01  .133682042360D-04  .515365628242D+04
     .547200000000D+06 -.339001417160D-06  .310063756269D+01 -.175088644028D-06
     .927102213414D+00  .102406250000D+03 -.207234432411D+01 -.829641700764D-08
    -.571452374714D-11  .100000000000D+01  .176400000000D+04  .000000000000D+00
     .685000000000D+01  .000000000000D+00 -.111758708954D-07  .109000000000D+03
     .540006000000D+06  .400000000000D+01
19 13 11  2  8  0  0.0 -.415685586631D-03 -.261479726760D-11  .000000000000D+00
     .170000000000D+02  .338750000000D+02  .489234664302D-08 -.759884895502D+00
     .176206231117D-05  .959075591527D-02  .497139990330D-05  .515374668312D+04
     .547200000000D+06  .186264514923D-06  .110247631635D+01  .372529029846D-07
     .963613254703D+00  .285000000000D+03  .395568712545D+00 -.835534803378D-08
     .281797452281D-09  .100000000000D+01  .176400000000D+04  .000000000000D+00
     .240000000000D+01  .000000000000D+00 -.149011611938D-07  .170000000000D+02
     .540006000000D+06  .400000000000D+01
20 13 11  2  8  0  0.0  .133823603392D-03  .284217094304D-11  .000000000000D+00
     .990000000000D+02  .561250000000D+02  .480341436720D-08  .211372857666D+01
     .292435288429D-05  .573555100709D-02  .125262886286D-04  .515365960884D+04
     .547200000000D+06  .689178705215D-07  .304739559838D+01 -.122934579849D-06
     .927955238020D+00  .119281250000D+03  .128608699478D+01 -.809998025383D-08
    -.239295681911D-10  .100000000000D+01  .176400000000D+04  .000000000000D+00
     .240000000000D+01  .000000000000D+00 -.791624188423D-08  .990000000000D+02
     .540006000000D+06  .400000000000D+01
21 13 11  2  8  0  0.0 -.326518900692D-03 -.181898940355D-11  .000000000000D+00
     .580000000000D+02 -.669375000000D+02  .527450541861D-08  .265381271082D+01
    -.363215804100D-05  .206449159887D-01  .725127756596D-05  .515360432243D+04
     .547200000000D+06  .162050127983D-06  .205431535974D+01 -.247731804848D-06
     .931567489971D+00  .220218750000D+03 -.209383548746D+01 -.811748098281D-08
    -.640740975148D-09  .100000000000D+01  .176400000000D+04  .000000000000D+00
     .240000000000D+01  .000000000000D+00 -.111758708954D-07  .580000000000D+02
     .540006000000D+06  .400000000000D+01
22 13 11  2  8  0  0.0  .192960258573D-03  .216004991671D-11  .000000000000D+00
     .102000000000D+03  .645312500000D+02  .495949229705D-08  .105894573915D+01
     .342726707458D-05  .671622948721D-02  .130776315928D-04  .515365804863D+04
     .547200000000D+06 -.104308128357D-06  .310293131729D+01  .000000000000D+00
     .924862364413D+00  .107031250000D+03 -.203990627204D+01 -.832427531091D-08
    -.607168148133D-10  .100000000000D+01  .176400000000D+04  .000000000000D+00
     .240000000000D+01  .000000000000D+00 -.172294676304D-07  .102000000000D+03
     .540006000000D+06  .400000000000D+01
